[
    {
        "Altitude(m)": 558590.485331644,
        "Argument of Periapsis(deg)": 0.026491964442854003,
        "Eccentricity": 0.0,
        "Inclination(deg)": 53.0,
        "Latitude(deg)": 47.408653654996414,
        "Longitude(deg)": 152.20451839322604,
        "Mean Anomaly(deg)": 113.09367147031033,
        "RAAN(deg)": 129.96057347411207,
        "Satellite Name": "Starlink Shell 1 576",
        "Satellite Number": 576,
        "Semi-Major Axis(m)": 6931778.249405717,
        "Time(s)": 760
    },
    {
        "Altitude(m)": 558523.6721785886,
        "Argument of Periapsis(deg)": 0.02684054292236524,
        "Eccentricity": 0.0,
        "Inclination(deg)": 53.0,
        "Latitude(deg)": 47.11545523542243,
        "Longitude(deg)": 152.97791332886612,
        "Mean Anomaly(deg)": 113.72050267386705,
        "RAAN(deg)": 129.9600547040346,
        "Satellite Name": "Starlink Shell 1 576",
        "Satellite Number": 576,
        "Semi-Major Axis(m)": 6931778.249405717,
        "Time(s)": 770
    },
    {
        "Altitude(m)": 558455.6284640875,
        "Argument of Periapsis(deg)": 0.027189121401876473,
        "Eccentricity": 0.0,
        "Inclination(deg)": 53.0,
        "Latitude(deg)": 46.816512564879574,
        "Longitude(deg)": 153.74232889858968,
        "Mean Anomaly(deg)": 114.34733387742378,
        "RAAN(deg)": 129.95953593395714,
        "Satellite Name": "Starlink Shell 1 576",
        "Satellite Number": 576,
        "Semi-Major Axis(m)": 6931778.249405717,
        "Time(s)": 780
    },
    {
        "Altitude(m)": 558386.3962706267,
        "Argument of Periapsis(deg)": 0.02753769988138771,
        "Eccentricity": 0.0,
        "Inclination(deg)": 53.0,
        "Latitude(deg)": 46.511946880949736,
        "Longitude(deg)": 154.49778889228207,
        "Mean Anomaly(deg)": 114.97416508098051,
        "RAAN(deg)": 129.95901716387965,
        "Satellite Name": "Starlink Shell 1 576",
        "Satellite Number": 576,
        "Semi-Major Axis(m)": 6931778.249405717,
        "Time(s)": 790
    },
    {
        "Altitude(m)": 558316.0184886766,
        "Argument of Periapsis(deg)": 0.02788627836089895,
        "Eccentricity": 0.0,
        "Inclination(deg)": 53.0,
        "Latitude(deg)": 46.20187835595124,
        "Longitude(deg)": 155.24432570988344,
        "Mean Anomaly(deg)": 115.60099628453723,
        "RAAN(deg)": 129.9584983938022,
        "Satellite Name": "Starlink Shell 1 576",
        "Satellite Number": 576,
        "Semi-Major Axis(m)": 6931778.249405717,
        "Time(s)": 800
    },
    {
        "Altitude(m)": 558244.5387953859,
        "Argument of Periapsis(deg)": 0.02823485684041019,
        "Eccentricity": 0.0,
        "Inclination(deg)": 53.0,
        "Latitude(deg)": 45.88642598503569,
        "Longitude(deg)": 155.98198031676898,
        "Mean Anomaly(deg)": 116.22782748809391,
        "RAAN(deg)": 129.95797962372473,
        "Satellite Name": "Starlink Shell 1 576",
        "Satellite Number": 576,
        "Semi-Major Axis(m)": 6931778.249405717,
        "Time(s)": 810
    },
    {
        "Altitude(m)": 558172.0016328682,
        "Argument of Periapsis(deg)": 0.028583435319921423,
        "Eccentricity": 0.0,
        "Inclination(deg)": 53.0,
        "Latitude(deg)": 45.56570748440122,
        "Longitude(deg)": 156.7108022075723,
        "Mean Anomaly(deg)": 116.85465869165061,
        "RAAN(deg)": 129.9574608536472,
        "Satellite Name": "Starlink Shell 1 576",
        "Satellite Number": 576,
        "Semi-Major Axis(m)": 6931778.249405717,
        "Time(s)": 820
    },
    {
        "Altitude(m)": 558098.4521861024,
        "Argument of Periapsis(deg)": 0.028932013799432665,
        "Eccentricity": 0.0,
        "Inclination(deg)": 53.0,
        "Latitude(deg)": 45.23983919928003,
        "Longitude(deg)": 157.4308478676356,
        "Mean Anomaly(deg)": 117.48148989520732,
        "RAAN(deg)": 129.95694208356977,
        "Satellite Name": "Starlink Shell 1 576",
        "Satellite Number": 576,
        "Semi-Major Axis(m)": 6931778.249405717,
        "Time(s)": 830
    },
    {
        "Altitude(m)": 558023.9363604212,
        "Argument of Periapsis(deg)": 0.029280592278943897,
        "Eccentricity": 0.0,
        "Inclination(deg)": 53.0,
        "Latitude(deg)": 44.90893602132468,
        "Longitude(deg)": 158.14218075962754,
        "Mean Anomaly(deg)": 118.10832109876408,
        "RAAN(deg)": 129.9564233134923,
        "Satellite Name": "Starlink Shell 1 576",
        "Satellite Number": 576,
        "Semi-Major Axis(m)": 6931778.249405717,
        "Time(s)": 840
    },
    {
        "Altitude(m)": 557948.5007586355,
        "Argument of Periapsis(deg)": 0.029629170758455132,
        "Eccentricity": 0.0,
        "Inclination(deg)": 53.0,
        "Latitude(deg)": 44.57311131500263,
        "Longitude(deg)": 158.84487132398846,
        "Mean Anomaly(deg)": 118.7351523023208,
        "RAAN(deg)": 129.95590454341482,
        "Satellite Name": "Starlink Shell 1 576",
        "Satellite Number": 576,
        "Semi-Major Axis(m)": 6931778.249405717,
        "Time(s)": 850
    },
    {
        "Altitude(m)": 557872.1926577684,
        "Argument of Periapsis(deg)": 0.02997774923796637,
        "Eccentricity": 0.0,
        "Inclination(deg)": 53.0,
        "Latitude(deg)": 44.23247685259541,
        "Longitude(deg)": 159.53899531352127,
        "Mean Anomaly(deg)": 119.3619835058775,
        "RAAN(deg)": 129.95538577333733,
        "Satellite Name": "Starlink Shell 1 576",
        "Satellite Number": 576,
        "Semi-Major Axis(m)": 6931778.249405717,
        "Time(s)": 860
    },
    {
        "Altitude(m)": 557795.0599854455,
        "Argument of Periapsis(deg)": 0.030326327717477602,
        "Eccentricity": 0.0,
        "Inclination(deg)": 53.0,
        "Latitude(deg)": 43.887142757375806,
        "Longitude(deg)": 160.22463466562198,
        "Mean Anomaly(deg)": 119.9888147094342,
        "RAAN(deg)": 129.9548670032599,
        "Satellite Name": "Starlink Shell 1 576",
        "Satellite Number": 576,
        "Semi-Major Axis(m)": 6931778.249405717,
        "Time(s)": 870
    },
    {
        "Altitude(m)": 557717.1512959225,
        "Argument of Periapsis(deg)": 0.030674906196988847,
        "Eccentricity": 0.0,
        "Inclination(deg)": 53.0,
        "Latitude(deg)": 43.537217454546735,
        "Longitude(deg)": 160.90187587008768,
        "Mean Anomaly(deg)": 120.61564591299091,
        "RAAN(deg)": 129.95434823318237,
        "Satellite Name": "Starlink Shell 1 576",
        "Satellite Number": 576,
        "Semi-Major Axis(m)": 6931778.249405717,
        "Time(s)": 880
    },
    {
        "Altitude(m)": 557638.5157457612,
        "Argument of Periapsis(deg)": 0.031023484676500086,
        "Eccentricity": 0.0,
        "Inclination(deg)": 53.0,
        "Latitude(deg)": 43.18280762950744,
        "Longitude(deg)": 161.57081003558764,
        "Mean Anomaly(deg)": 121.2424771165477,
        "RAAN(deg)": 129.95382946310494,
        "Satellite Name": "Starlink Shell 1 576",
        "Satellite Number": 576,
        "Semi-Major Axis(m)": 6931778.249405717,
        "Time(s)": 890
    },
    {
        "Altitude(m)": 557559.2030692208,
        "Argument of Periapsis(deg)": 0.03137206315601132,
        "Eccentricity": 0.0,
        "Inclination(deg)": 53.0,
        "Latitude(deg)": 42.824018193021054,
        "Longitude(deg)": 162.2315329743083,
        "Mean Anomaly(deg)": 121.86930832010438,
        "RAAN(deg)": 129.95331069302745,
        "Satellite Name": "Starlink Shell 1 576",
        "Satellite Number": 576,
        "Semi-Major Axis(m)": 6931778.249405717,
        "Time(s)": 900
    },
    {
        "Altitude(m)": 557479.263553267,
        "Argument of Periapsis(deg)": 0.03172064163552255,
        "Eccentricity": 0.0,
        "Inclination(deg)": 53.0,
        "Latitude(deg)": 42.46095225286402,
        "Longitude(deg)": 162.88414379221095,
        "Mean Anomaly(deg)": 122.49613952366106,
        "RAAN(deg)": 129.95279192294998,
        "Satellite Name": "Starlink Shell 1 576",
        "Satellite Number": 576,
        "Semi-Major Axis(m)": 6931778.249405717,
        "Time(s)": 910
    },
    {
        "Altitude(m)": 557398.7480123254,
        "Argument of Periapsis(deg)": 0.0320692201150338,
        "Eccentricity": 0.0,
        "Inclination(deg)": 53.0,
        "Latitude(deg)": 42.0937110915341,
        "Longitude(deg)": 163.5287450108251,
        "Mean Anomaly(deg)": 123.12297072721773,
        "RAAN(deg)": 129.9522731528725,
        "Satellite Name": "Starlink Shell 1 576",
        "Satellite Number": 576,
        "Semi-Major Axis(m)": 6931778.249405717,
        "Time(s)": 920
    },
    {
        "Altitude(m)": 557317.7077627182,
        "Argument of Periapsis(deg)": 0.032417798594545036,
        "Eccentricity": 0.0,
        "Inclination(deg)": 53.0,
        "Latitude(deg)": 41.72239414961136,
        "Longitude(deg)": 164.16544270774025,
        "Mean Anomaly(deg)": 123.7498019307745,
        "RAAN(deg)": 129.95175438279506,
        "Satellite Name": "Starlink Shell 1 576",
        "Satellite Number": 576,
        "Semi-Major Axis(m)": 6931778.249405717,
        "Time(s)": 930
    },
    {
        "Altitude(m)": 557236.1945968084,
        "Argument of Periapsis(deg)": 0.03276637707405627,
        "Eccentricity": 0.0,
        "Inclination(deg)": 53.0,
        "Latitude(deg)": 41.347099014376234,
        "Longitude(deg)": 164.79434516284684,
        "Mean Anomaly(deg)": 124.3766331343312,
        "RAAN(deg)": 129.95123561271754,
        "Satellite Name": "Starlink Shell 1 576",
        "Satellite Number": 576,
        "Semi-Major Axis(m)": 6931778.249405717,
        "Time(s)": 940
    }
]